{
    "links": {
        "self": "http://www.neowsapp.com/rest/v1/neo/3727662?api_key=iIulBulltgU6a56xZRHN4H3l9WmuAYTsLGpBGhQ2"
    },
    "id": "3727662",
    "neo_reference_id": "3727662",
    "name": "(2015 RX83)",
    "designation": "2015 RX83",
    "nasa_jpl_url": "http://ssd.jpl.nasa.gov/sbdb.cgi?sstr=3727662",
    "absolute_magnitude_h": 22.9,
    "estimated_diameter": {
        "kilometers": {
            "estimated_diameter_min": 0.0699125232,
            "estimated_diameter_max": 0.1563291544
        },
        "meters": {
            "estimated_diameter_min": 69.9125232246,
            "estimated_diameter_max": 156.3291544087
        },
        "miles": {
            "estimated_diameter_min": 0.0434416145,
            "estimated_diameter_max": 0.097138403
        },
        "feet": {
            "estimated_diameter_min": 229.3718026961,
            "estimated_diameter_max": 512.8909429502
        }
    },
    "is_potentially_hazardous_asteroid": false,
    "close_approach_data": [
        {
            "close_approach_date": "2015-09-07",
            "close_approach_date_full": "2015-Sep-07 21:46",
            "epoch_date_close_approach": 1441662360000,
            "relative_velocity": {
                "kilometers_per_second": "2.6950620297",
                "kilometers_per_hour": "9702.2233069217",
                "miles_per_hour": "6028.584254237"
            },
            "miss_distance": {
                "astronomical": "0.2895756794",
                "lunar": "112.6449392866",
                "kilometers": "43319904.842042878",
                "miles": "26917740.6766245964"
            },
            "orbiting_body": "Earth"
        }
    ],
    "orbital_data": {
        "orbit_id": "10",
        "orbit_determination_date": "2017-04-06 08:31:54",
        "first_observation_date": "2015-09-12",
        "last_observation_date": "2015-10-20",
        "data_arc_in_days": 38,
        "observations_used": 27,
        "orbit_uncertainty": "6",
        "minimum_orbit_intersection": ".230628",
        "jupiter_tisserand_invariant": "3.620",
        "epoch_osculation": "2459000.5",
        "eccentricity": ".4141741755101302",
        "semi_major_axis": "2.115230677130592",
        "inclination": "1.851056376147541",
        "ascending_node_longitude": "128.7034848142179",
        "orbital_period": "1123.66028549728",
        "perihelion_distance": "1.239156755416294",
        "perihelion_argument": "209.179095280422",
        "aphelion_distance": "2.991304598844889",
        "perihelion_time": "2459503.113060117467",
        "mean_anomaly": "198.9720594581555",
        "mean_motion": ".320381528693684",
        "equinox": "J2000",
        "orbit_class": {
            "orbit_class_type": "AMO",
            "orbit_class_description": "Near-Earth asteroid orbits similar to that of 1221 Amor",
            "orbit_class_range": "1.017 AU < q (perihelion) < 1.3 AU"
        }
    },
    "is_sentry_object": false
}